TRANSPORTER-13 OBJECT AH
1 63241U 25052AH  26068.64880921  .00014108  00000+0  55931-3 0  9999
2 63241  97.3962 323.1443 0008070 138.7508 221.4341 15.25468797 54753
STARLINK-33711          
1 63404U 25065F   26068.81156020  .00020862  00000+0  76505-3 0  9993
2 63404  43.0051 105.9596 0002249 269.6404  90.4190 15.27598715 52869
